     2.100          NAVIGATION                              RINEX VERSION / TYPE
fic2rin                                 11/09/2008 03:03:18 PGM / RUN BY / DATE
                                                            END OF HEADER
10 08 11  8 12  0  0.0 -.699143856764D-05 -.454747350886D-12  .000000000000D+00
     .180000000000D+02 -.178437500000D+02  .472769692755D-08  .393344161277D+00
    -.808387994766D-06  .816220196430D-02  .494346022606D-05  .515372825241D+04
     .561600000000D+06  .391155481339D-07 -.197540750569D+01  .160187482834D-06
     .961126808915D+00  .282156250000D+03  .559115485610D+00 -.843928010132D-08
    -.303584074067D-09  .100000000000D+01  .150400000000D+04  .000000000000D+00
     .240000000000D+01  .000000000000D+00 -.232830643654D-08  .180000000000D+02
     .554406000000D+06  .400000000000D+01
11 08 11  8 12  0  0.0  .160932540894D-04 -.795807864051D-12  .000000000000D+00
     .940000000000D+02  .688125000000D+02  .610096841554D-08 -.249260127873D+01
     .350736081600D-05  .882406835444D-02  .796839594841D-05  .515365821457D+04
     .561600000000D+06  .353902578354D-07  .303481702058D+01 -.670552253723D-07
     .890726919220D+00  .188531250000D+03  .641948626823D+00 -.875000733007D-08
     .263939565571D-09  .100000000000D+01  .150400000000D+04  .000000000000D+00
     .340000000000D+01  .000000000000D+00 -.121071934700D-07  .940000000000D+02
     .554406000000D+06  .400000000000D+01
12 08 11  8 12  0  0.0 -.341890379786D-03  .227373675443D-11  .000000000000D+00
     .280000000000D+02 -.512500000000D+02  .476376985871D-08 -.209583985932D+01
    -.262819230556D-05  .297326222062D-02  .559352338314D-05  .515378529739D+04
     .561600000000D+06 -.502914190292D-07  .114459262335D+01  .745058059692D-07
     .964883693725D+00  .272500000000D+03 -.845883179938D+00 -.827070165078D-08
    -.180007498035D-09  .100000000000D+01  .150400000000D+04  .000000000000D+00
     .240000000000D+01  .000000000000D+00 -.116415321827D-07  .280000000000D+02
     .554406000000D+06  .400000000000D+01
14 08 11  8 12  0  0.0 -.197202432901D-03  .477484718431D-11  .000000000000D+00
     .620000000000D+02 -.223750000000D+02  .378480050928D-08 -.232460991916D+00
    -.111013650894D-05  .438045640476D-02  .102594494820D-04  .515375365829D+04
     .561600000000D+06 -.130385160446D-07 -.919217008895D+00  .726431608200D-07
     .988976055622D+00  .199156250000D+03 -.214874166445D+01 -.774746557018D-08
    -.357157734196D-10  .100000000000D+01  .150400000000D+04  .000000000000D+00
     .340000000000D+01  .000000000000D+00 -.931322574615D-08  .620000000000D+02
     .554406000000D+06  .400000000000D+01
15 08 11  8 12  0  0.0 -.207487493753D-03 -.625277607469D-11  .000000000000D+00
     .660000000000D+02 -.247187500000D+02  .438125392538D-08  .540746860917D+00
    -.131130218506D-05  .113324541599D-02  .107754021883D-04  .515373015022D+04
     .561600000000D+06  .167638063431D-07 -.965424477485D+00 -.372529029846D-07
     .957186876481D+00  .168250000000D+03 -.104157974145D+01 -.806069290307D-08
    -.113576159474D-09  .100000000000D+01  .150400000000D+04  .000000000000D+00
     .240000000000D+01  .000000000000D+00 -.977888703346D-08  .660000000000D+02
     .554406000000D+06  .400000000000D+01
16 08 11  8 12  0  0.0  .965972431004D-04 -.238742359215D-11  .000000000000D+00
     .990000000000D+02 -.520625000000D+02  .472198240381D-08  .161845525882D+01
    -.254809856415D-05  .474544358440D-02  .555068254471D-05  .515370135117D+04
     .561600000000D+06  .614672899246D-07  .116123105044D+01 -.558793544769D-08
     .966459951382D+00  .272687500000D+03 -.385445212643D+00 -.823177145775D-08
    -.213223167315D-09  .100000000000D+01  .150400000000D+04  .000000000000D+00
     .240000000000D+01  .000000000000D+00 -.977888703346D-08  .990000000000D+02
     .554406000000D+06  .400000000000D+01
17 08 11  8 12  0  0.0  .402443110943D-04  .341060513165D-12  .000000000000D+00
     .102000000000D+03 -.903125000000D+01  .449054419205D-08  .507242179187D+00
    -.501051545143D-06  .392776192166D-02  .115856528282D-04  .515361540985D+04
     .561600000000D+06  .409781932831D-07  .220318421489D+01  .726431608200D-07
     .959507301548D+00  .155781250000D+03 -.279895251318D+01 -.803033449566D-08
    -.182864759908D-09  .100000000000D+01  .150400000000D+04  .000000000000D+00
     .240000000000D+01  .000000000000D+00 -.102445483208D-07  .102000000000D+03
     .554406000000D+06  .400000000000D+01
18 08 11  8 12  0  0.0 -.115097500384D-03  .386535248253D-11  .000000000000D+00
     .108000000000D+03 -.227812500000D+02  .510164107526D-08  .175952799385D+01
    -.119954347610D-05  .990520254709D-02  .488385558128D-05  .515373014069D+04
     .561600000000D+06 -.189989805222D-06 -.196695018902D+01  .000000000000D+00
     .945195380873D+00  .278156250000D+03 -.244373697683D+01 -.856964267430D-08
    -.299298181256D-09  .100000000000D+01  .150400000000D+04  .000000000000D+00
     .340000000000D+01  .000000000000D+00 -.107102096081D-07  .108000000000D+03
     .554406000000D+06  .400000000000D+01
19 08 11  8 12  0  0.0  .355918891728D-04 -.113686837722D-12  .000000000000D+00
     .520000000000D+02 -.846875000000D+01  .450768776329D-08 -.150683360727D+00
    -.497326254845D-06  .492399593350D-02  .110194087029D-04  .515375320244D+04
     .561600000000D+06  .540167093277D-07  .225981596812D+01 -.726431608200D-07
     .957308734631D+00  .167593750000D+03 -.431045301053D+00 -.803069165340D-08
    -.152149194768D-09  .100000000000D+01  .150400000000D+04  .000000000000D+00
     .240000000000D+01  .000000000000D+00 -.144354999065D-07  .520000000000D+02
     .554406000000D+06  .400000000000D+01
20 08 11  8 12  0  0.0  .996487215161D-04 -.102318153949D-11  .000000000000D+00
     .700000000000D+01 -.128125000000D+02  .500949437983D-08  .186300590668D+01
    -.741332769394D-06  .359054061119D-02  .482983887196D-05  .515374034119D+04
     .561600000000D+06 -.111758708954D-07 -.202067983023D+01 -.651925802231D-07
     .944787332059D+00  .277031250000D+03  .133238412854D+01 -.847999608302D-08
    -.202151277555D-09  .100000000000D+01  .150400000000D+04  .000000000000D+00
     .240000000000D+01  .000000000000D+00 -.651925802231D-08  .700000000000D+01
     .554406000000D+06  .400000000000D+01
21 08 11  8 12  0  0.0  .434117391706D-04 -.159161572810D-11  .000000000000D+00
     .840000000000D+02  .731250000000D+02  .510699844127D-08  .298862132117D+01
     .363215804100D-05  .143770294962D-01  .754371285439D-05  .515367226601D+04
     .561600000000D+06 -.152736902237D-06 -.302537836969D+01 -.152736902237D-06
     .935604131530D+00  .219937500000D+03 -.266827831982D+01 -.818319800590D-08
     .238224208709D-09  .100000000000D+01  .150400000000D+04  .000000000000D+00
     .240000000000D+01  .000000000000D+00 -.116415321827D-07  .840000000000D+02
     .554406000000D+06  .400000000000D+01
22 08 11  8 12  0  0.0  .209604389966D-03 -.454747350886D-12  .000000000000D+00
     .230000000000D+02 -.225625000000D+02  .519307345521D-08  .569529955529D+00
    -.116229057312D-05  .513610104099D-02  .469572842121D-05  .515366423035D+04
     .561600000000D+06 -.912696123123D-07 -.196081871167D+01 -.577419996262D-07
     .942846443533D+00  .280500000000D+03 -.181412040416D+01 -.861643033748D-08
    -.265011038773D-09  .100000000000D+01  .150400000000D+04  .000000000000D+00
     .240000000000D+01  .000000000000D+00 -.176951289177D-07  .230000000000D+02
     .554406000000D+06  .400000000000D+01
23 08 11  8 12  0  0.0  .379352830350D-03  .113686837722D-11  .000000000000D+00
     .950000000000D+02 -.100625000000D+02  .412088593715D-08 -.781020034334D+00
    -.715255737305D-06  .583192217164D-02  .954233109951D-05  .515367786598D+04
     .561600000000D+06  .167638063431D-07 -.948237342006D+00 -.115483999252D-06
     .971037403034D+00  .200093750000D+03  .287287034782D+01 -.791068665471D-08
    -.214294640518D-10  .100000000000D+01  .150400000000D+04  .000000000000D+00
     .340000000000D+01  .000000000000D+00 -.200234353542D-07  .950000000000D+02
     .554406000000D+06  .400000000000D+01
24 08 11  8 12  0  0.0  .139430630952D-03  .295585778076D-11  .000000000000D+00
     .790000000000D+02  .725000000000D+02  .477805616808D-08  .163560060458D+01
     .379979610443D-05  .732634682208D-02  .708177685738D-05  .515365924072D+04
     .561600000000D+06  .800937414169D-07 -.299664949960D+01  .689178705215D-07
     .952256609950D+00  .235875000000D+03 -.676966216006D+00 -.817676916669D-08
     .192150860997D-09  .100000000000D+01  .150400000000D+04  .000000000000D+00
     .240000000000D+01  .000000000000D+00 -.139698386192D-08  .790000000000D+02
     .554406000000D+06  .400000000000D+01
25 08 11  8 12  0  0.0  .692624598742D-05  .311501935357D-10  .000000000000D+00
     .470000000000D+02  .319375000000D+02  .441804117201D-08  .215762332099D+01
     .164285302162D-05  .116341424873D-01  .713206827641D-05  .515369061661D+04
     .561600000000D+06  .217929482460D-06 -.600064126508D-03  .521540641785D-07
     .967355751713D+00  .245375000000D+03 -.125009762276D+01 -.790354350003D-08
     .326799326789D-09  .100000000000D+01  .150400000000D+04  .000000000000D+00
     .240000000000D+01  .000000000000D+00 -.745058059692D-08  .470000000000D+02
     .554406000000D+06  .400000000000D+01
26 08 11  8 12  0  0.0  .127949751914D-04  .454747350886D-11  .000000000000D+00
     .650000000000D+02 -.784375000000D+01  .363658004958D-08 -.123248125688D+01
    -.236555933952D-06  .192488058237D-01  .108964741230D-04  .515363779831D+04
     .561600000000D+06  .411644577980D-06 -.902768572438D+00  .264495611191D-06
     .993248971618D+00  .182125000000D+03  .958866125034D+00 -.764531845820D-08
    -.500020827875D-10  .100000000000D+01  .150400000000D+04  .000000000000D+00
     .240000000000D+01  .000000000000D+00 -.605359673500D-08  .650000000000D+02
     .554406000000D+06  .400000000000D+01
